{
  "norad_id": 56174,
  "name": "INTELSAT 40E (IS-40E)",
  "history": [
    {
      "epoch": "2026-03-28T12:38:32.635104",
      "apogee_km": 35789.80518795553,
      "perigee_km": 35783.3202571382,
      "latitude_deg": -0.005051262207437178,
      "longitude_deg": -152.03040544013493,
      "semi_major_axis_km": 42164.699722546866,
      "eccentricity": 7.69e-05,
      "inclination_deg": 0.0125,
      "raan_deg": 147.606,
      "arg_perigee_deg": 252.8706,
      "mean_anomaly_deg": 244.0962,
      "mean_motion_rev_day": 1.002719
    },
    {
      "epoch": "2026-03-28T21:11:51.204192",
      "apogee_km": 35789.86113460055,
      "perigee_km": 35783.25814310691,
      "latitude_deg": 0.0022659777968127176,
      "longitude_deg": -117.80977312009782,
      "semi_major_axis_km": 42164.69663885373,
      "eccentricity": 7.83e-05,
      "inclination_deg": 0.0139,
      "raan_deg": 144.3835,
      "arg_perigee_deg": 254.5804,
      "mean_anomaly_deg": 14.288,
      "mean_motion_rev_day": 1.00271911
    }
  ]
}